[{"OBJECT_NAME":"JY1SAT (JO-97)","OBJECT_ID":"2018-099AX","EPOCH":"2026-03-09T16:28:19.890048","MEAN_MOTION":15.30302629,"ECCENTRICITY":0.00047232,"INCLINATION":97.4249,"RA_OF_ASC_NODE":131.3625,"ARG_OF_PERICENTER":256.6795,"MEAN_ANOMALY":103.3919,"EPHEMERIS_TYPE":0,"CLASSIFICATION_TYPE":"U","NORAD_CAT_ID":43803,"ELEMENT_SET_NO":999,"REV_AT_EPOCH":39839,"BSTAR":0.00060804308,"MEAN_MOTION_DOT":0.00017774,"MEAN_MOTION_DDOT":0},{"OBJECT_NAME":"STARLINK-33575","OBJECT_ID":"2025-015C","EPOCH":"2026-03-09T23:22:19.413120","MEAN_MOTION":15.30204787,"ECCENTRICITY":9.424e-5,"INCLINATION":53.1594,"RA_OF_ASC_NODE":321.1786,"ARG_OF_PERICENTER":133.3549,"MEAN_ANOMALY":226.753,"EPHEMERIS_TYPE":0,"CLASSIFICATION_TYPE":"U","NORAD_CAT_ID":62760,"ELEMENT_SET_NO":999,"REV_AT_EPOCH":6376,"BSTAR":0.00076854083,"MEAN_MOTION_DOT":0.00022475,"MEAN_MOTION_DDOT":0}]
